C/2019 L1 (PANSTARRS),e,9.9746,254.4279,50.0544,9.831402,0.0319728,0.70470031,55.7859,05/19.0/2024,2000,g 13.5,4.0
# From MPC115886
C/2019 L2 (NEOWISE),e,152.1931,12.5593,18.8651,25.11632,0.0078301,0.93528926,14.6678,05/19.0/2024,2000,g 16.0,4.0
# From MPEC 2024-GJ3
P/2019 LD2 (ATLAS),e,11.6034,179.3915,118.0049,5.195796,0.0832197,0.12749619,129.3427,05/19.0/2024,2000,g  8.5,4.0
# From MPEC 2024-JU4
C/2019 L3 (ATLAS),h,01/09.8598/2022,48.3445,290.7456,171.6691,1.002595,3.555324,2000,4.5,4.0
# From MPEC 2020-K19
P/2019 LM4 (Palomar),e,36.4179,72.8422,68.2630,5.704157,0.0723464,0.58544697,129.9730,05/19.0/2024,2000,g  9.5,4.0
# From MPC118095
C/2019 LB7 (Kleyna),e,164.2880,3.9257,336.6809,34.87207,0.0047862,0.92843918,9.0000,05/19.0/2024,2000,g 17.0,4.0
# From MPEC 2024-DC6
P/2019 M2 (ATLAS),e,12.2662,307.6101,332.5247,3.030038,0.1868667,0.64729154,335.3012,05/19.0/2024,2000,g 21.2,4.0
# From MPC118095
C/2019 M3 (ATLAS),e,99.5759,154.9809,87.9219,4782,0.0000030,0.99949294,0.0000,12/31.3595/2018,2000,g 12.2,4.0
# From MPEC 2023-JA2
C/2019 M4 (TESS),h,09/11.3949/2019,65.6781,52.6495,260.3688,1.002172,9.190423,2000,5.0,4.0
# From MPEC 2023-C45
C/2019 N1 (ATLAS),e,82.4560,13.5554,193.3729,1132,0.0000259,0.99849488,0.0000,11/30.8609/2020,2000,g  7.5,4.0
# From MPEC 2023-CD8
A/2019 N2,e,89.3459,276.1886,347.1493,1390,0.0000190,0.99860104,0.0000,08/22.6341/2019,2000,g 12.5,2.0
# From MPEC 2022-A21
C/2019 NJ3 (Lemmon),h,10/22.7305/2020,99.3828,142.4848,246.8926,1.001909,4.363325,2000,9.0,4.0
# From MPEC 2024-JU4
C/2019 O2 (PANSTARRS),e,93.3123,48.2577,129.6054,58.39680,0.0022086,0.83419820,0.9021,05/19.0/2024,2000,g  5.0,4.0
# From MPEC 2024-JU4
C/2019 O3 (Palomar),h,03/09.4842/2021,89.8094,300.4524,60.1297,1.004054,8.821384,2000,3.5,4.0
# From MPEC 2021-P47
A/2019 O4,e,115.0622,354.9285,61.8658,33.26398,0.0051374,0.89039605,8.0092,05/19.0/2024,2000,g 15.5,2.0
# From MPEC 2024-EF7
C/2019 Q1 (Lemmon),h,07/21.4485/2020,155.7311,42.4568,56.2452,1.001742,5.005045,2000,8.5,4.0
# From MPC117072
A/2019 Q2,e,159.0105,188.0503,176.4622,58.43934,0.0022062,0.97837603,0.0000,07/22.6433/2019,2000,g 18.0,2.0
# From MPC117072
P/2019 S2 (PANSTARRS),e,10.4644,93.1847,217.0721,4.745361,0.0953455,0.20499897,182.6196,05/19.0/2024,2000,g 13.5,4.0
# From MPEC 2022-CN4
P/2019 S3 (PANSTARRS),e,8.6937,150.1605,213.0709,3.415124,0.1561688,0.47098053,269.5704,05/19.0/2024,2000,g 18.3,4.0
# From MPEC 2021-S45
C/2019 S4 (Lemmon),e,92.1071,63.1583,71.3727,241.1679,0.0002632,0.98572988,0.0000,04/08.5563/2020,2000,g 11.0,4.0
# From MPEC 2023-N01
A/2019 T1,e,120.8585,6.9430,91.0430,38.83912,0.0040719,0.88983466,4.9677,05/19.0/2024,2000,g 13.0,2.0
# From MPEC 2023-R20
C/2019 T2 (Lemmon),e,111.4322,155.6560,239.4209,4992,0.0000028,0.99947017,0.0000,04/22.6709/2021,2000,g  9.0,4.0
# From MPEC 2023-UR6
C/2019 T3 (ATLAS),e,121.8460,139.5335,112.4640,3390,0.0000050,0.99824403,0.0000,03/04.3237/2021,2000,g  6.8,4.0
# From MPEC 2024-JU4
C/2019 T4 (ATLAS),e,53.6289,199.9320,351.1281,892.2498,0.0000370,0.99524790,0.0000,06/08.7085/2022,2000,g  5.0,4.0
# From MPEC 2021-P47
P/2019 T5 (ATLAS),e,33.4968,247.6120,189.5881,8.001925,0.0435424,0.80981026,76.2557,05/19.0/2024,2000,g 15.0,4.0
# From MPEC 2021-P47
P/2019 T6 (PANSTARRS),e,18.6995,71.2459,329.0190,5.440217,0.0776747,0.62297384,128.3931,05/19.0/2024,2000,g 15.5,4.0
# From MPC118096
P/2019 U4 (PANSTARRS),e,11.6979,200.0179,181.0484,3.519655,0.1492636,0.47595595,254.1217,05/19.0/2024,2000,g 19.0,4.0
# From MPEC 2024-JU4
C/2019 U5 (PANSTARRS),h,03/29.6885/2023,113.5143,2.6311,181.4680,1.000874,3.623868,2000,4.5,4.0
# From MPEC 2022-H04
C/2019 U6 (Lemmon),e,60.9652,235.7903,329.4922,317.3933,0.0001743,0.99713088,0.0000,06/18.2643/2020,2000,g 10.0,4.0
# From MPEC 2022-N37
C/2019 V1 (Borisov),e,61.9376,83.1503,51.1717,1855,0.0000123,0.99833284,0.0000,07/16.8532/2020,2000,g 11.0,4.0
# From MPEC 2022-L66
P/2019 V2 (Groeller),e,11.8073,189.1723,335.6445,7.495593,0.0480281,0.33137229,62.9299,05/19.0/2024,2000,g 10.0,4.0
# From MPEC 2023-A50
P/2019 W1 (PANSTARRS),e,23.4740,35.3753,18.8031,4.548742,0.1015938,0.26730790,186.4619,05/19.0/2024,2000,g 12.9,4.0
# From MPEC 2021-P47
P/2019 X1 (Pruyne),e,10.2499,43.6797,36.8658,6.176227,0.0642124,0.30395632,113.1140,05/19.0/2024,2000,g 10.4,4.0
# From MPEC 2020-C98
P/2019 X2 (Pan-STARRS),e,15.8955,250.8411,213.4576,3.635707,0.1421742,0.50016938,230.5670,05/19.0/2024,2000,g 18.0,4.0
# From MPC119999
C/2019 Y1 (ATLAS),e,73.3678,31.5346,57.9080,87.38315,0.0012066,0.99052905,0.0000,03/16.5661/2020,2000,g 13.7,4.0
# From MPEC 2020-C98
P/2019 Y3 (Catalina),e,24.5997,139.3002,2.5753,3.014706,0.1882940,0.69114430,305.7368,05/19.0/2024,2000,g 18.5,4.0
# From MPEC 2024-A43
C/2019 Y4 (ATLAS),e,45.0736,120.7294,177.4401,350.9722,0.0001499,0.99926934,0.0000,05/30.4715/2020,2000,g 11.8,6.0
# From MPEC 2020-L06
C/2019 Y4-A (ATLAS),h,05/30.5082/2020,45.5129,121.0937,177.2737,1.001405,0.254600,2000,11.6,6.0
# From MPEC 2023-J29
C/2019 Y4-B (ATLAS),h,05/30.4808/2020,45.2034,120.8364,177.3844,1.000000,0.255913,2000,12.1,6.0
# From MPEC 2020-L06
C/2019 Y4-C (ATLAS),h,05/30.4605/2020,45.2958,120.8207,177.3068,1.002132,0.255675,2000,12.7,6.0
# From MPEC 2020-L06
C/2019 Y4-D (ATLAS),e,45.3443,121.1888,177.4464,68.07665,0.0017547,0.99625449,0.0000,05/30.5798/2020,2000,g 12.5,6.0
# From MPEC 2023-A50
C/2019 Y5 (PANSTARRS),e,82.7610,51.7500,303.6112,715.6273,0.0000515,0.99311628,0.0000,08/17.3806/2019,2000,g 11.0,4.0
# From MPEC 2023-A50
A/2020 A1,e,149.0333,119.1347,302.4300,25.52664,0.0076421,0.93468649,12.4608,05/19.0/2024,2000,g 18.0,2.0
# From MPEC 2022-YN2
C/2020 A2 (Iwamoto),e,120.5588,286.2387,68.0348,1161,0.0000249,0.99916102,0.0000,01/08.1271/2020,2000,g 13.5,4.0
# From MPEC 2023-A50
C/2020 A3 (ATLAS),h,06/28.3345/2019,146.6434,120.8040,268.2992,1.000037,5.755333,2000,8.0,4.0
# From MPEC 2022-P91
P/2020 A4 (PANSTARRS-Lemmon),e,24.9942,312.3362,144.8072,8.196939,0.0419978,0.65436451,68.8050,05/19.0/2024,2000,g 15.0,4.0
# From MPEC 2020-N08
A/2020 B1,e,18.5268,309.8900,154.7664,51.67851,0.0026530,0.96635805,4.2582,05/19.0/2024,2000,g 21.0,2.0
# From MPEC 2020-HN5
C/2020 B2 (Lemmon),e,55.7523,354.2595,143.5935,67.66787,0.0017706,0.95924249,2.7873,05/19.0/2024,2000,g 10.0,4.0
# From MPEC 2022-N37
C/2020 B3 (Rankin),e,20.7081,185.8168,324.8825,951.6445,0.0000336,0.99649968,0.0000,10/19.8804/2019,2000,g 13.0,4.0
# From MPEC 2023-KD6
P/2020 B4 (Sheppard),e,11.6069,185.9723,341.9861,7.968444,0.0438171,0.19223908,39.9981,05/19.0/2024,2000,g 10.5,4.0
# From MPEC 2024-JU4
C/2020 F2 (ATLAS),h,07/13.7731/2022,163.5895,250.3028,48.2855,1.004446,8.814963,2000,4.5,4.0
# From MPEC 2021-O56
C/2020 F3 (NEOWISE),e,129.1521,61.0964,37.3906,381.6739,0.0001322,0.99922743,0.0000,07/04.2309/2020,2000,g  7.5,5.2
# From MPEC 2024-BE0
C/2020 F5 (MASTER),e,52.2114,350.5069,310.6728,169.5657,0.0004464,0.97448409,0.0000,03/16.9146/2021,2000,g  6.5,3.2
# From MPEC 2020-L06
C/2020 F6 (PANSTARRS),e,174.5832,207.8882,344.4483,373.3910,0.0001366,0.99062465,0.0000,04/11.3464/2020,2000,g 14.5,2.8
# From MPEC 2024-A43
C/2020 F7 (Lemmon),e,93.9606,321.8480,227.9516,554.1191,0.0000756,0.99037608,0.0000,11/13.6199/2021,2000,g  7.0,4.0
# From MPEC 2023-J29
C/2020 F8 (SWAN),h,05/26.7454/2020,110.5711,259.8199,68.0742,1.000129,0.430361,2000,10.0,4.0
# From MPEC 2020-L06
P/2020 G1 (Pimentel),e,18.5119,240.1115,207.6181,3.607624,0.1438375,0.86068962,219.0185,05/19.0/2024,2000,g 17.0,4.0
# From MPEC 2022-YB4
C/2020 H2 (Pruyne),e,124.8292,277.6708,26.6236,184.2928,0.0003940,0.99549893,0.0000,04/27.6443/2020,2000,g 14.0,3.2
# From MPEC 2020-HM1
C/2020 H3 (Wierzchos),p,06/05.7162/2020,62.5292,30.4456,2.300288,270.6227,2000,13.5,4.0
# From MPEC 2020-L06
C/2020 H4 (Leonard),e,84.4963,307.5703,117.5232,47.81515,0.0029810,0.98065803,0.0000,08/29.5695/2020,2000,g 15.0,3.2
# From MPEC 2024-JU4
C/2020 H5 (Robinson),e,70.2517,210.6262,326.2925,4604,0.0000032,0.99797150,0.0000,12/10.1427/2020,2000,g  5.0,4.0
# From MPEC 2024-JU4
C/2020 H6 (ATLAS),e,79.9786,213.7169,20.2482,3095,0.0000057,0.99848136,0.0000,09/30.1546/2021,2000,g  8.0,3.2
# From MPEC 2020-KB7
C/2020 H7 (Lemmon),e,135.9235,323.5194,82.6780,1405,0.0000187,0.99685380,0.0000,06/02.9510/2020,2000,g 11.0,4.0
# From MPEC 2021-N06
C/2020 H8 (PANSTARRS),e,99.7051,68.4423,128.8947,599.4051,0.0000672,0.99220778,0.0000,06/04.5972/2020,2000,g 10.5,4.0
# From MPEC 2022-ED3
A/2020 H9,e,137.8783,213.1748,312.7474,360.4085,0.0001440,0.99287503,0.0000,12/21.9018/2019,2000,g 18.0,2.0
# From MPEC 2023-HN7
C/2020 H11 (PANSTARRS-Lemmon),h,09/14.0977/2020,151.3873,303.0491,91.4199,1.001328,7.623600,2000,8.5,4.0
# From MPEC 2023-KD6
C/2020 J1 (SONEAR),h,04/18.4972/2021,142.3059,226.6097,341.6776,1.000375,3.349335,2000,8.5,3.2
# From MPEC 2024-JU4
C/2020 K1 (PANSTARRS),e,89.6729,94.3632,213.9811,6940,0.0000017,0.99955714,0.0000,05/09.0418/2023,2000,g  5.5,4.0
# From MPEC 2021-N06
C/2020 K2 (PANSTARRS),h,08/05.8121/2020,91.0041,288.4166,67.3416,1.002548,8.880559,2000,10.8,4.0
# From MPEC 2020-KF9
C/2020 K3 (Leonard),p,06/01.0032/2020,129.0152,64.4924,1.583069,28.3546,2000,14.5,4.0
# From MPEC 2020-L06
C/2020 K4 (PANSTARRS),e,125.5853,264.2543,308.8535,23.96658,0.0084003,0.92697337,12.9077,05/19.0/2024,2000,g 16.5,4.0
# From MPEC 2021-R75
C/2020 K5 (PANSTARRS),h,06/05.0757/2021,67.0822,86.1488,249.6294,1.001134,1.538392,2000,11.0,4.0
# From MPEC 2023-N01
C/2020 K6 (Rankin),h,09/15.5796/2021,103.6421,291.5803,44.3243,1.003262,5.868113,2000,8.0,4.0
# From MPEC 2023-A50
C/2020 K7 (PANSTARRS),e,32.0443,286.1096,358.1925,96.58312,0.0010384,0.93380067,1.7300,05/19.0/2024,2000,g  8.0,4.0
# From MPEC 2021-P47
C/2020 K8 (Catalina-ATLAS),h,09/15.2614/2020,31.4338,181.4696,259.9961,1.000246,0.471036,2000,15.0,3.2
# From MPEC 2021-BE3
P/2020 K9 (Lemmon-PANSTARRS),e,23.2017,166.3137,197.0752,4.205212,0.1142937,0.32078988,136.2095,05/19.0/2024,2000,g 12.5,4.0
# From MPEC 2023-C45
P/2020 M1 (PANSTARRS),e,8.5334,142.6022,72.5984,5.315224,0.0804307,0.47305380,129.3444,05/19.0/2024,2000,g 14.5,4.0
# From MPEC 2022-H30
